NORAD_CAT_ID,OBJECT_NAME,OBJECT_TYPE,EPOCH,MEAN_MOTION,ECCENTRICITY,INCLINATION,RA_OF_ASC_NODE,ARG_OF_PERICENTER,MEAN_ANOMALY,BSTAR,MEAN_MOTION_DOT,MEAN_MOTION_DDOT,TLE_LINE0,TLE_LINE1,TLE_LINE2,SEMIMAJOR_AXIS,PERIOD,APOGEE,PERIGEE,DECAYED
52848.0,STARLINK-4202,PAYLOAD,2022-11-06 09:13:36,15.08845336,0.0002461,53.2184,107.8062,38.7469,321.3699,1.5109e-05,-4.8e-07,0.0,0 STARLINK-4202,1 52848U 22062U   22310.38444834 -.00000048  00000-0  15109-4 0  9998,2 52848  53.2184 107.8062 0002461  38.7469 321.3699 15.08845336 21713,6917.864000000001,95.437,541.432,538.0269999999998,0.0
52848.0,STARLINK-4202,PAYLOAD,2022-11-06 20:21:18,15.08832956,0.0002072,53.2202,105.7241,56.9458,303.1733,3.4298e-05,2.58e-06,0.0,0 STARLINK-4202,1 52848U 22062U   22310.84813551  .00000258  00000-0  34298-4 0  9997,2 52848  53.2202 105.7241 0002072  56.9458 303.1733 15.08832956 22271,6917.901999999999,95.438,541.2,538.3340000000002,0.0
52848.0,STARLINK-4202,PAYLOAD,2022-11-07 20:12:06,15.08830858,0.0002439,53.2186,101.2649,35.4545,324.6609,5.5295e-05,5.92e-06,0.0,0 STARLINK-4202,1 52848U 22062U   22311.84174130  .00000592  00000-0  55295-4 0  9992,2 52848  53.2186 101.2649 0002439  35.4545 324.6609 15.08830858 21932,6917.908,95.438,541.461,538.086,0.0
52848.0,STARLINK-4202,PAYLOAD,2022-11-08 08:55:10,15.08839056,0.0002191,53.2189,98.8845,26.6063,333.5041,9.3969e-05,1.208e-05,0.0,0 STARLINK-4202,1 52848U 22062U   22312.37165332  .00001208  00000-0  93969-4 0  9990,2 52848  53.2189  98.8845 0002191  26.6063 333.5041 15.08839056 22508,6917.8830000000025,95.438,541.264,538.2330000000002,0.0
52848.0,STARLINK-4202,PAYLOAD,2022-11-08 16:52:05,15.088578,0.0002549,53.218,97.3987,36.6631,323.4535,0.00013996,1.941e-05,0.0,0 STARLINK-4202,1 52848U 22062U   22312.70284027  .00001941  00000-0  13996-3 0  9995,2 52848  53.2180  97.3987 0002549  36.6631 323.4535 15.08857800 22557,6917.826,95.436,541.4540000000002,537.928,0.0
52848.0,STARLINK-4202,PAYLOAD,2022-11-09 13:32:07,15.08826808,0.0002413,53.2201,93.5345,32.4873,327.6267,1.2141e-05,-9.5e-07,0.0,0 STARLINK-4202,1 52848U 22062U   22313.56397989 -.00000095  00000-0  12141-4 0  9994,2 52848  53.2201  93.5345 0002413  32.4873 327.6267 15.08826808 22191,6917.920999999999,95.438,541.455,538.116,0.0
52848.0,STARLINK-4202,PAYLOAD,2022-11-09 19:53:40,15.08818878,0.0002399,53.2192,92.3448,35.5521,324.563,-0.0002673,-4.538e-05,0.0,0 STARLINK-4202,1 52848U 22062U   22313.82894136 -.00004538  00000-0 -26730-3 0  9994,2 52848  53.2192  92.3448 0002399  35.5521 324.5630 15.08818878 22725,6917.945,95.439,541.47,538.15,0.0
52848.0,STARLINK-4202,PAYLOAD,2022-11-10 13:22:55,15.08822823,0.0002497,53.2182,89.0729,31.3712,328.7428,-0.0002878,-4.864e-05,0.0,0 STARLINK-4202,1 52848U 22062U   22314.55758721 -.00004864  00000-0 -28780-3 0  9993,2 52848  53.2182  89.0729 0002497  31.3712 328.7428 15.08822823 22348,6917.933000000001,95.439,541.525,538.07,0.0
52848.0,STARLINK-4202,PAYLOAD,2022-11-10 16:33:41,15.08824713,0.0002456,53.2184,88.4786,30.5533,329.5601,-0.00023191,-3.976e-05,0.0,0 STARLINK-4202,1 52848U 22062U   22314.69006800 -.00003976  00000-0 -23191-3 0  9996,2 52848  53.2184  88.4786 0002456  30.5533 329.5601 15.08824713 22851,6917.927,95.439,541.491,538.0930000000002,0.0
52848.0,STARLINK-4202,PAYLOAD,2022-11-11 11:38:20,15.08810965,0.0002561,53.2193,84.9108,39.6064,320.5115,0.00043658,6.661e-05,0.0,0 STARLINK-4202,1 52848U 22062U   22315.48495867  .00006661  00000-0  43658-3 0  9991,2 52848  53.2193  84.9108 0002561  39.6064 320.5115 15.08810965 22480,6917.969,95.439,541.606,538.062,0.0
52848.0,STARLINK-4202,PAYLOAD,2022-11-11 16:24:29,15.08829429,0.0002521,53.2188,84.0186,32.257,327.8576,0.00048146,7.38e-05,0.0,0 STARLINK-4202,1 52848U 22062U   22315.68367918  .00007380  00000-0  48146-3 0  9994,2 52848  53.2188  84.0186 0002521  32.2570 327.8576 15.08829429 22518,6917.913000000001,95.438,541.5219999999998,538.034,0.0
52848.0,STARLINK-4202,PAYLOAD,2022-11-12 01:56:48,15.08846442,0.0002553,53.2187,82.2343,32.8933,327.2217,0.0006837,0.00010612,0.0,0 STARLINK-4202,1 52848U 22062U   22316.08111683  .00010612  00000-0  68370-3 0  9998,2 52848  53.2187  82.2343 0002553  32.8933 327.2217 15.08846442 23067,6917.861,95.437,541.492,537.96,0.0
52848.0,STARLINK-4202,PAYLOAD,2022-11-12 14:39:53,15.08860268,0.0002614,53.2187,79.8561,34.0597,326.0562,0.00052878,8.142e-05,0.0,0 STARLINK-4202,1 52848U 22062U   22316.61103106  .00008142  00000-0  52878-3 0  9999,2 52848  53.2187  79.8561 0002614  34.0597 326.0562 15.08860268 22655,6917.818,95.436,541.492,537.875,0.0
52848.0,STARLINK-4202,PAYLOAD,2022-11-12 17:50:39,15.08861046,0.0002625,53.2186,79.2609,32.8382,327.2773,0.0004902,7.526e-05,0.0,0 STARLINK-4202,1 52848U 22062U   22316.74350966  .00007526  00000-0  49020-3 0  9991,2 52848  53.2186  79.2609 0002625  32.8382 327.2773 15.08861046 22675,6917.816,95.436,541.497,537.865,0.0
52848.0,STARLINK-4202,PAYLOAD,2022-11-13 11:19:52,15.08858731,0.0002658,53.2185,75.9911,27.0986,333.0144,8.2756e-05,1.03e-05,0.0,0 STARLINK-4202,1 52848U 22062U   22317.47213841  .00001030  00000-0  82756-4 0  9990,2 52848  53.2185  75.9911 0002658  27.0986 333.0144 15.08858731 23276,6917.823,95.436,541.5269999999998,537.849,0.0
52848.0,STARLINK-4202,PAYLOAD,2022-11-13 16:06:02,15.08847314,0.0002574,53.2184,75.0985,30.833,329.2813,-0.00023628,-4.048e-05,0.0,0 STARLINK-4202,1 52848U 22062U   22317.67086005 -.00004048  00000-0 -23628-3 0  9998,2 52848  53.2184  75.0985 0002574  30.8330 329.2813 15.08847314 23308,6917.858,95.437,541.504,537.942,0.0
52848.0,STARLINK-4202,PAYLOAD,2022-11-14 11:10:40,15.08833805,0.0002628999999999,53.2178,71.5299,30.1662,329.9481,0.00021794,3.181e-05,0.0,0 STARLINK-4202,1 52848U 22062U   22318.46574625  .00003181  00000-0  21794-3 0  9993,2 52848  53.2178  71.5299 0002629  30.1662 329.9481 15.08833805 22938,6917.899,95.438,541.5830000000002,537.946,0.0
52848.0,STARLINK-4202,PAYLOAD,2022-11-14 17:32:13,15.08836487,0.000284,53.2172,70.3414,25.8948,334.2186,-0.00010761,-2.001e-05,0.0,0 STARLINK-4202,1 52848U 22062U   22318.73070766 -.00002001  00000-0 -10761-3 0  9994,2 52848  53.2172  70.3414 0002840  25.8948 334.2186 15.08836487 22975,6917.891,95.438,541.721,537.7909999999998,0.0
52848.0,STARLINK-4202,PAYLOAD,2022-11-15 14:12:13,15.08840951,0.0002641,53.2173,66.475,28.8672,331.2465,1.7e-05,-1.8e-07,0.0,0 STARLINK-4202,1 52848U 22062U   22319.59182785 -.00000018  00000-0  17000-4 0  9993,2 52848  53.2173  66.4750 0002641  28.8672 331.2465 15.08840951 23105,6917.877,95.437,541.569,537.915,0.0
52848.0,STARLINK-4202,PAYLOAD,2022-11-15 15:47:37,15.08838366,0.0002701,53.2171,66.1781,27.5224,332.591,-7.435e-06,-4.07e-06,0.0,0 STARLINK-4202,1 52848U 22062U   22319.65806957 -.00000407  00000-0 -74350-5 0  9999,2 52848  53.2171  66.1781 0002701  27.5224 332.5910 15.08838366 23117,6917.885,95.438,541.619,537.882,0.0
52848.0,STARLINK-4202,PAYLOAD,2022-11-16 14:03:00,15.08858424,0.0002617,53.217,62.0149,19.4281,340.6811,-0.00056116,-9.213e-05,0.0,0 STARLINK-4202,1 52848U 22062U   22320.58542108 -.00009213  00000-0 -56116-3 0  9990,2 52848  53.2170  62.0149 0002617  19.4281 340.6811 15.08858424 23744,6917.824000000001,95.436,541.499,537.879,0.0
52848.0,STARLINK-4202,PAYLOAD,2022-11-16 15:38:24,15.08846262,0.0002668,53.217,61.7175,21.6439,338.4666,-0.00018934,-3.301e-05,0.0,0 STARLINK-4202,1 52848U 22062U   22320.65166780 -.00003301  00000-0 -18934-3 0  9994,2 52848  53.2170  61.7175 0002668  21.6439 338.4666 15.08846262 23756,6917.861,95.437,541.572,537.881,0.0
52848.0,STARLINK-4202,PAYLOAD,2022-11-17 12:18:25,15.08840848,0.0002726,53.2173,57.8509,22.6393,337.4719,7.1305e-05,8.47e-06,0.0,0 STARLINK-4202,1 52848U 22062U   22321.51278964  .00000847  00000-0  71305-4 0  9990,2 52848  53.2173  57.8509 0002726  22.6393 337.4719 15.08840848 23393,6917.878000000002,95.438,541.629,537.857,0.0
52848.0,STARLINK-4202,PAYLOAD,2022-11-17 15:29:11,15.08842433,0.0002752,53.2174,57.2564,23.3526,336.759,8.6813e-05,1.094e-05,0.0,0 STARLINK-4202,1 52848U 22062U   22321.64526886  .00001094  00000-0  86813-4 0  9998,2 52848  53.2174  57.2564 0002752  23.3526 336.7590 15.08842433 23418,6917.873000000001,95.437,541.6419999999998,537.8340000000002,0.0
52848.0,STARLINK-4202,PAYLOAD,2022-11-18 10:33:49,15.08835668,0.0002747,53.2176,53.6885,25.5391,334.5737,0.00012163,1.648e-05,0.0,0 STARLINK-4202,1 52848U 22062U   22322.44015378  .00001648  00000-0  12163-3 0  9997,2 52848  53.2176  53.6885 0002747  25.5391 334.5737 15.08835668 24023,6917.894,95.438,541.659,537.8580000000002,0.0
52848.0,STARLINK-4202,PAYLOAD,2022-11-19 05:38:26,15.088482199999998,0.0002744,53.2178,50.1207,26.8108,333.3025,8.6795e-05,1.093e-05,0.0,0 STARLINK-4202,1 52848U 22062U   22323.23502590  .00001093  00000-0  86795-4 0  9999,2 52848  53.2178  50.1207 0002744  26.8108 333.3025 15.08848220 24140,6917.855,95.437,541.619,537.822,0.0
52848.0,STARLINK-4202,PAYLOAD,2022-11-19 15:10:45,15.08845056,0.0002809,53.2183,48.3366,24.9479,335.1648,0.00011082,1.476e-05,0.0,0 STARLINK-4202,1 52848U 22062U   22323.63246797  .00001476  00000-0  11082-3 0  9998,2 52848  53.2183  48.3366 0002809  24.9479 335.1648 15.08845056 23710,6917.865,95.437,541.673,537.7869999999998,0.0
52848.0,STARLINK-4202,PAYLOAD,2022-11-20 05:29:13,15.08844706,0.0002777,53.2176,45.6603,26.3275,333.7858,0.00014969,2.095e-05,0.0,0 STARLINK-4202,1 52848U 22062U   22324.22862671  .00002095  00000-0  14969-3 0  9994,2 52848  53.2176  45.6603 0002777  26.3275 333.7858 15.08844706 24292,6917.866,95.437,541.6519999999998,537.81,0.0
52848.0,STARLINK-4202,PAYLOAD,2022-11-20 11:50:45,15.08849724,0.0002737,53.2179,44.4703,23.7296,336.3821,0.00014028,1.945e-05,0.0,0 STARLINK-4202,1 52848U 22062U   22324.49358259  .00001945  00000-0  14028-3 0  9994,2 52848  53.2179  44.4703 0002737  23.7296 336.3821 15.08849724 23847,6917.851,95.437,541.609,537.822,0.0
